[
    {
        "Altitude(m)": 622200.1267296401,
        "Argument of Periapsis(deg)": 0.0,
        "Eccentricity": 0.0,
        "Inclination(deg)": 60.0,
        "Latitude(deg)": -52.16259212671038,
        "Longitude(deg)": -152.6393675474825,
        "Mean Anomaly(deg)": -65.45449999999992,
        "RAAN(deg)": 355.0,
        "Satellite Name": "Test1 1580",
        "Satellite Number": 1580,
        "Semi-Major Axis(m)": 6980739.136638005,
        "Time(s)": 0
    },
    {
        "Altitude(m)": 622058.2949952214,
        "Argument of Periapsis(deg)": 0.00010418945913296404,
        "Eccentricity": 0.0,
        "Inclination(deg)": 60.0,
        "Latitude(deg)": -51.79934303526453,
        "Longitude(deg)": -151.87130718050287,
        "Mean Anomaly(deg)": -64.83439385453808,
        "RAAN(deg)": 354.99957995086027,
        "Satellite Name": "Test1 1580",
        "Satellite Number": 1580,
        "Semi-Major Axis(m)": 6980739.136638005,
        "Time(s)": 10
    }
]